{"fetched_at":"2026-07-11T06:35:05.049Z","source":"https://celestrak.org/NORAD/elements/gp.php?GROUP=kuiper&FORMAT=JSON","constellation":"kuiper","records":[{"OBJECT_NAME":"KUIPER-00589","OBJECT_ID":"2026-151E","EPOCH":"2026-07-10T20:00:01.999008","CLASSIFICATION_TYPE":"U","MEAN_MOTION":15.37339778,"ECCENTRICITY":0.0005509,"INCLINATION":51.8755,"RA_OF_ASC_NODE":201.4741,"ARG_OF_PERICENTER":130.5097,"MEAN_ANOMALY":242.8068,"EPHEMERIS_TYPE":0,"NORAD_CAT_ID":69767,"ELEMENT_SET_NO":999,"REV_AT_EPOCH":198,"BSTAR":0.00085954,"MEAN_MOTION_DOT":0.000317,"MEAN_MOTION_DDOT":0},{"OBJECT_NAME":"KUIPER-00598","OBJECT_ID":"2026-151F","EPOCH":"2026-07-10T20:00:01.999008","CLASSIFICATION_TYPE":"U","MEAN_MOTION":15.35471075,"ECCENTRICITY":0.0010519,"INCLINATION":51.8636,"RA_OF_ASC_NODE":201.5765,"ARG_OF_PERICENTER":153.2941,"MEAN_ANOMALY":169.0774,"EPHEMERIS_TYPE":0,"NORAD_CAT_ID":69768,"ELEMENT_SET_NO":999,"REV_AT_EPOCH":188,"BSTAR":0.00077685,"MEAN_MOTION_DOT":0.00026942,"MEAN_MOTION_DDOT":0},{"OBJECT_NAME":"KUIPER-00604","OBJECT_ID":"2026-151G","EPOCH":"2026-07-10T20:00:01.999008","CLASSIFICATION_TYPE":"U","MEAN_MOTION":15.38161108,"ECCENTRICITY":0.0002713,"INCLINATION":51.8801,"RA_OF_ASC_NODE":201.4159,"ARG_OF_PERICENTER":96.316,"MEAN_ANOMALY":302.4063,"EPHEMERIS_TYPE":0,"NORAD_CAT_ID":69769,"ELEMENT_SET_NO":999,"REV_AT_EPOCH":230,"BSTAR":0.00085563,"MEAN_MOTION_DOT":0.00032407,"MEAN_MOTION_DDOT":0},{"OBJECT_NAME":"KUIPER-00609","OBJECT_ID":"2026-151H","EPOCH":"2026-07-10T20:00:01.999008","CLASSIFICATION_TYPE":"U","MEAN_MOTION":15.38559296,"ECCENTRICITY":0.0000912,"INCLINATION":51.8804,"RA_OF_ASC_NODE":201.3883,"ARG_OF_PERICENTER":41.3668,"MEAN_ANOMALY":10.4834,"EPHEMERIS_TYPE":0,"NORAD_CAT_ID":69770,"ELEMENT_SET_NO":999,"REV_AT_EPOCH":130,"BSTAR":0.00084223,"MEAN_MOTION_DOT":0.00032311,"MEAN_MOTION_DDOT":0},{"OBJECT_NAME":"KUIPER-00611","OBJECT_ID":"2026-151J","EPOCH":"2026-07-10T20:00:01.999008","CLASSIFICATION_TYPE":"U","MEAN_MOTION":15.38372446,"ECCENTRICITY":0.0001604,"INCLINATION":51.8806,"RA_OF_ASC_NODE":201.3979,"ARG_OF_PERICENTER":95.065,"MEAN_ANOMALY":310.2104,"EPHEMERIS_TYPE":0,"NORAD_CAT_ID":69771,"ELEMENT_SET_NO":999,"REV_AT_EPOCH":130,"BSTAR":0.00084935,"MEAN_MOTION_DOT":0.00032389,"MEAN_MOTION_DDOT":0},{"OBJECT_NAME":"KUIPER-00612","OBJECT_ID":"2026-151K","EPOCH":"2026-07-10T20:00:01.999008","CLASSIFICATION_TYPE":"U","MEAN_MOTION":15.37863097,"ECCENTRICITY":0.0003734,"INCLINATION":51.8793,"RA_OF_ASC_NODE":201.4368,"ARG_OF_PERICENTER":104.09,"MEAN_ANOMALY":285.5302,"EPHEMERIS_TYPE":0,"NORAD_CAT_ID":69772,"ELEMENT_SET_NO":999,"REV_AT_EPOCH":130,"BSTAR":0.00086596,"MEAN_MOTION_DOT":0.00032487,"MEAN_MOTION_DDOT":0},{"OBJECT_NAME":"KUIPER-00614","OBJECT_ID":"2026-151L","EPOCH":"2026-07-10T20:00:01.999008","CLASSIFICATION_TYPE":"U","MEAN_MOTION":15.38075394,"ECCENTRICITY":0.0002753,"INCLINATION":51.8804,"RA_OF_ASC_NODE":201.4197,"ARG_OF_PERICENTER":111.9333,"MEAN_ANOMALY":284.1497,"EPHEMERIS_TYPE":0,"NORAD_CAT_ID":69773,"ELEMENT_SET_NO":999,"REV_AT_EPOCH":188,"BSTAR":0.00085313,"MEAN_MOTION_DOT":0.0003222,"MEAN_MOTION_DDOT":0},{"OBJECT_NAME":"KUIPER-00615","OBJECT_ID":"2026-151M","EPOCH":"2026-07-10T20:00:01.999008","CLASSIFICATION_TYPE":"U","MEAN_MOTION":15.37154717,"ECCENTRICITY":0.0006228,"INCLINATION":51.8774,"RA_OF_ASC_NODE":201.4842,"ARG_OF_PERICENTER":133.5456,"MEAN_ANOMALY":234.0581,"EPHEMERIS_TYPE":0,"NORAD_CAT_ID":69774,"ELEMENT_SET_NO":999,"REV_AT_EPOCH":130,"BSTAR":0.00085422,"MEAN_MOTION_DOT":0.00031314,"MEAN_MOTION_DDOT":0},{"OBJECT_NAME":"KUIPER-00616","OBJECT_ID":"2026-151N","EPOCH":"2026-07-10T20:00:01.999008","CLASSIFICATION_TYPE":"U","MEAN_MOTION":15.38313102,"ECCENTRICITY":0.000316,"INCLINATION":51.8787,"RA_OF_ASC_NODE":201.4173,"ARG_OF_PERICENTER":110.5633,"MEAN_ANOMALY":289.2486,"EPHEMERIS_TYPE":0,"NORAD_CAT_ID":69775,"ELEMENT_SET_NO":999,"REV_AT_EPOCH":130,"BSTAR":0.00084804,"MEAN_MOTION_DOT":0.00032277,"MEAN_MOTION_DDOT":0},{"OBJECT_NAME":"KUIPER-00617","OBJECT_ID":"2026-151P","EPOCH":"2026-07-10T20:00:01.999008","CLASSIFICATION_TYPE":"U","MEAN_MOTION":15.37699575,"ECCENTRICITY":0.0004119,"INCLINATION":51.8798,"RA_OF_ASC_NODE":201.4426,"ARG_OF_PERICENTER":122.6437,"MEAN_ANOMALY":263.4798,"EPHEMERIS_TYPE":0,"NORAD_CAT_ID":69776,"ELEMENT_SET_NO":999,"REV_AT_EPOCH":130,"BSTAR":0.00086907,"MEAN_MOTION_DOT":0.00032432,"MEAN_MOTION_DDOT":0},{"OBJECT_NAME":"KUIPER-00619","OBJECT_ID":"2026-151Q","EPOCH":"2026-07-10T20:00:01.999008","CLASSIFICATION_TYPE":"U","MEAN_MOTION":15.38460163,"ECCENTRICITY":0.0001573,"INCLINATION":51.8806,"RA_OF_ASC_NODE":201.3926,"ARG_OF_PERICENTER":53.3408,"MEAN_ANOMALY":355.4835,"EPHEMERIS_TYPE":0,"NORAD_CAT_ID":69777,"ELEMENT_SET_NO":999,"REV_AT_EPOCH":137,"BSTAR":0.00084705,"MEAN_MOTION_DOT":0.00032393,"MEAN_MOTION_DDOT":0},{"OBJECT_NAME":"KUIPER-00621","OBJECT_ID":"2026-151R","EPOCH":"2026-07-10T20:00:01.999008","CLASSIFICATION_TYPE":"U","MEAN_MOTION":15.38251109,"ECCENTRICITY":0.0001993,"INCLINATION":51.8797,"RA_OF_ASC_NODE":201.4119,"ARG_OF_PERICENTER":103.3467,"MEAN_ANOMALY":298.1887,"EPHEMERIS_TYPE":0,"NORAD_CAT_ID":69778,"ELEMENT_SET_NO":999,"REV_AT_EPOCH":212,"BSTAR":0.00084909,"MEAN_MOTION_DOT":0.0003225,"MEAN_MOTION_DDOT":0},{"OBJECT_NAME":"KUIPER-00622","OBJECT_ID":"2026-151S","EPOCH":"2026-07-10T20:00:01.999008","CLASSIFICATION_TYPE":"U","MEAN_MOTION":15.36916952,"ECCENTRICITY":0.0006952,"INCLINATION":51.8734,"RA_OF_ASC_NODE":201.4983,"ARG_OF_PERICENTER":134.6471,"MEAN_ANOMALY":227.1556,"EPHEMERIS_TYPE":0,"NORAD_CAT_ID":69779,"ELEMENT_SET_NO":999,"REV_AT_EPOCH":198,"BSTAR":0.00087527,"MEAN_MOTION_DOT":0.00031854,"MEAN_MOTION_DDOT":0},{"OBJECT_NAME":"KUIPER-00623","OBJECT_ID":"2026-151T","EPOCH":"2026-07-10T20:00:01.999008","CLASSIFICATION_TYPE":"U","MEAN_MOTION":15.37356878,"ECCENTRICITY":0.0005107,"INCLINATION":51.878,"RA_OF_ASC_NODE":201.4641,"ARG_OF_PERICENTER":121.9073,"MEAN_ANOMALY":255.2335,"EPHEMERIS_TYPE":0,"NORAD_CAT_ID":69780,"ELEMENT_SET_NO":999,"REV_AT_EPOCH":210,"BSTAR":0.00085494,"MEAN_MOTION_DOT":0.00031543,"MEAN_MOTION_DDOT":0},{"OBJECT_NAME":"KUIPER-00626","OBJECT_ID":"2026-151U","EPOCH":"2026-07-10T20:00:01.999008","CLASSIFICATION_TYPE":"U","MEAN_MOTION":15.35711804,"ECCENTRICITY":0.0010307,"INCLINATION":51.8715,"RA_OF_ASC_NODE":201.5588,"ARG_OF_PERICENTER":149.1979,"MEAN_ANOMALY":182.8331,"EPHEMERIS_TYPE":0,"NORAD_CAT_ID":69781,"ELEMENT_SET_NO":999,"REV_AT_EPOCH":233,"BSTAR":0.00081841,"MEAN_MOTION_DOT":0.0002863,"MEAN_MOTION_DDOT":0},{"OBJECT_NAME":"KUIPER-00627","OBJECT_ID":"2026-151V","EPOCH":"2026-07-10T20:00:01.999008","CLASSIFICATION_TYPE":"U","MEAN_MOTION":15.35467559,"ECCENTRICITY":0.0011405,"INCLINATION":51.8687,"RA_OF_ASC_NODE":201.5749,"ARG_OF_PERICENTER":153.7509,"MEAN_ANOMALY":170.261,"EPHEMERIS_TYPE":0,"NORAD_CAT_ID":69782,"ELEMENT_SET_NO":999,"REV_AT_EPOCH":130,"BSTAR":0.00086463,"MEAN_MOTION_DOT":0.00030048,"MEAN_MOTION_DDOT":0}]}
